From:	Horizons Ephemeris System <horizons@ssd.jpl.nasa.gov>
Sent:	Friday, December 4, 2020 12:40 PM
Subject:	[Horizons] MAJOR BODY #C(usr={-90.,15.,.600^G}@301)_T(301) (1/1)

 Automated mail xmit by MAIL_REQUEST, PID= 5932 Fri Dec  4 10:39:40 2020
++++++++++++++++++++++++++++++++ (part 1 of 1)  +++++++++++++++++++++++++++++++
*******************************************************************************
 Revised: July 31, 2013             Moon / (Earth)                          301
 
 GEOPHYSICAL DATA (updated 2018-Aug-15):
  Vol. mean radius, km  = 1737.53+-0.03    Mass, x10^22 kg       =    7.349
  Radius (gravity), km  = 1738.0           Surface emissivity    =    0.92
  Radius (IAU), km      = 1737.4           GM, km^3/s^2          = 4902.800066
  Density, g/cm^3       =    3.3437        GM 1-sigma, km^3/s^2  =  +-0.0001  
  V(1,0)                =   +0.21          Surface accel., m/s^2 =    1.62
  Earth/Moon mass ratio = 81.3005690769    Farside crust. thick. = ~80 - 90 km
  Mean crustal density  = 2.97+-.07 g/cm^3 Nearside crust. thick.= 58+-8 km 
  Heat flow, Apollo 15  = 3.1+-.6 mW/m^2   Mean angular diameter = 31'05.2"
  Heat flow, Apollo 17  = 2.2+-.5 mW/m^2   Sid. rot. rate, rad/s = 0.0000026617
  Geometric Albedo      = 0.12             Mean solar day        = 29.5306 d
  Obliquity to orbit    = 6.67 deg         Orbit period          = 27.321582 d
  Semi-major axis, a    = 384400 km        Eccentricity          = 0.05490
  Mean motion, rad/s    = 2.6616995x10^-6  Inclination           = 5.145 deg
  Apsidal period        = 3231.50 d        Nodal period          = 6798.38 d
                                 Perihelion  Aphelion    Mean
  Solar Constant (W/m^2)         1414+-7     1323+-7     1368+-7
  Maximum Planetary IR (W/m^2)   1314        1226        1268
  Minimum Planetary IR (W/m^2)      5.2         5.2         5.2
********************************************************************************
 
 
*******************************************************************************
Ephemeris / MAIL_REQUEST Fri Dec  4 10:39:39 2020 Pasadena, USA  / Horizons
*******************************************************************************
Target body name: Moon (301)                      {source: DE431mx}
Center body name: Moon (301)                      {source: DE431mx}
Center-site name: (user defined site below)
*******************************************************************************
Start time      : A.D. 2020-Jan-01 00:00:00.0000 TDB
Stop  time      : A.D. 2039-Jan-01 00:00:00.0000 TDB
Step-size       : 10000 steps
*******************************************************************************
Center geodetic : 270.000000,15.0000000,0.6000000 {E-lon(deg),Lat(deg),Alt(km)}
Center cylindric: 270.000000,1678.77909,449.82750 {E-lon(deg),Dxy(km),Dz(km)}
Center pole/equ : IAU_MOON                        {East-longitude positive}
Center radii    : 1737.4 x 1737.4 x 1737.4 km     {Equator, meridian, pole}    
Output units    : KM-S
Output type     : GEOMETRIC cartesian states
Output format   : 3 (position, velocity, LT, range, range-rate)
Reference frame : Ecliptic of J2000.0
*******************************************************************************
JDTDB
   X     Y     Z
   VX    VY    VZ
   LT    RG    RR
*******************************************************************************
$$SOE
2465595.179999999 = A.D. 2038-Jun-20 16:19:12.0000 TDB 
  -1.300689489954178E+03 -1.043820707672987E+03 -4.891719339412354E+02
   2.783564964798051E-03 -3.495377343419471E-03  5.722641863199025E-05
   5.797343974543886E-03  1.738000000000001E+03  5.309970593899086E-19
2465595.873999999 = A.D. 2038-Jun-21 08:58:33.6000 TDB 
  -1.117807536812070E+03 -1.239228068097620E+03 -4.852464383024104E+02
   3.303452045630649E-03 -3.008529223118296E-03  7.342714972123935E-05
   5.797343974543884E-03  1.738000000000000E+03 -4.152157456883496E-19
2465596.568000000 = A.D. 2038-Jun-22 01:37:55.2000 TDB 
  -9.062085156913615E+02 -1.403083101555919E+03 -4.804039302677319E+02
   3.739378388841167E-03 -2.445194297055198E-03  8.774753119827926E-05
   5.797343974543885E-03  1.738000000000000E+03 -5.908839457872667E-19
2465597.262000000 = A.D. 2038-Jun-22 18:17:16.8000 TDB 
  -6.712706701957923E+02 -1.531219977170950E+03 -4.747684370801081E+02
   4.080256856002263E-03 -1.819691674936252E-03  9.982022171883180E-05
   5.797343974543886E-03  1.738000000000001E+03  1.189752809760848E-18
2465597.955999999 = A.D. 2038-Jun-23 10:56:38.4000 TDB 
  -4.189658617238615E+02 -1.620380831426416E+03 -4.684843304271976E+02
   4.317416822825030E-03 -1.147922859918905E-03  1.093354360989878E-04
   5.797343974543886E-03  1.738000000000001E+03 -2.794721365210045E-20
2465598.649999999 = A.D. 2038-Jun-24 03:36:00.0000 TDB 
  -1.557077204438710E+02 -1.668298700580635E+03 -4.617126286286097E+02
   4.444825252847736E-03 -4.469672340990354E-04  1.160489114547636E-04
   5.797343974543886E-03  1.738000000000000E+03 -4.790950911788649E-20
2465599.344000000 = A.D. 2038-Jun-24 20:15:21.6000 TDB 
   1.118114696230040E+02 -1.673755240272920E+03 -4.546268699930598E+02
   4.459240583856261E-03  2.653525985286202E-04  1.197882139633050E-04
   5.797343974543885E-03  1.738000000000000E+03  1.477209864468167E-19
2465600.037999999 = A.D. 2038-Jun-25 12:54:43.2000 TDB 
   3.767909947170078E+02 -1.636611754651674E+03 -4.474086620039227E+02
   4.360295455266614E-03  9.709245052745828E-04  1.204572200207883E-04
   5.797343974543885E-03  1.738000000000001E+03 -5.988688639735810E-20
2465600.731999999 = A.D. 2038-Jun-26 05:34:04.8000 TDB 
   6.324947043736066E+02 -1.557812739840456E+03 -4.402430198539413E+02
   4.150506136750757E-03  1.651807946708193E-03  1.180386433623032E-04
   5.797343974543886E-03  1.738000000000001E+03 -4.311855820609783E-19
2465601.426000000 = A.D. 2038-Jun-26 22:13:26.4000 TDB 
   8.724223612981033E+02 -1.439361849995026E+03 -4.333136142402402E+02
   3.835208410019881E-03  2.290690722855749E-03  1.125945248901068E-04
   5.797343974543885E-03  1.738000000000001E+03 -3.992459093157207E-20
2465602.120000000 = A.D. 2038-Jun-27 14:52:48.0000 TDB 
   1.090474978161986E+03 -1.284270900171242E+03 -4.267980517480908E+02
   3.422421554728679E-03  2.871329652999921E-03  1.042646559069617E-04
   5.797343974543886E-03  1.738000000000001E+03  4.271931229678211E-19
2465602.813999999 = A.D. 2038-Jun-28 07:32:09.6000 TDB 
   1.281109926334738E+03 -1.096483210092277E+03 -4.208633111027145E+02
   2.922643942958757E-03  3.378963919779030E-03  9.326296658746739E-05
   5.797343974543886E-03  1.738000000000001E+03  3.114118092662621E-19
2465603.507999999 = A.D. 2038-Jun-29 00:11:31.2000 TDB 
   1.439481864984273E+03 -8.807732485842548E+02 -4.156614547438098E+02
   2.348585503812701E-03  3.800690523922581E-03  7.987197539187536E-05
   5.797343974543885E-03  1.738000000000000E+03  5.589442730420090E-20
2465604.202000000 = A.D. 2038-Jun-29 16:50:52.8000 TDB 
   1.561565903651941E+03 -6.426251429674958E+02 -4.113257275903165E+02
   1.714843933763320E-03  4.125792283932502E-03  6.443545578372267E-05
   5.797343974543886E-03  1.738000000000000E+03 -1.038039364220874E-19
2465604.895999999 = A.D. 2038-Jun-30 09:30:14.4000 TDB 
   1.644259867607047E+03 -3.880931554366194E+02 -4.079671438732601E+02
   1.037532958203192E-03  4.346010046605471E-03  4.734952860018069E-05
   5.797343974543885E-03  1.738000000000000E+03 -2.195852501236464E-20
2465605.589999999 = A.D. 2038-Jul-01 02:09:36.0000 TDB 
   1.685463070737072E+03 -1.236476859930667E+02 -4.056716491574467E+02
   3.338721607509387E-04  4.455752214617885E-03  2.905242853769199E-05
   5.797343974543886E-03  1.738000000000001E+03  3.992459093157207E-20
2465606.284000000 = A.D. 2038-Jul-01 18:48:57.6000 TDB 
   1.684129601567356E+03  1.439892727165343E+02 -4.044979288786840E+02
  -3.782511394556496E-04  4.452236308387708E-03  1.001322116600143E-05
   5.797343974543884E-03  1.738000000000000E+03  5.389819775762231E-20
2465606.978000000 = A.D. 2038-Jul-02 11:28:19.2000 TDB 
   1.640294778614292E+03  4.080150381496504E+02 -4.044759175704206E+02
  -1.080736787954699E-03  4.335559019342880E-03 -9.280235233226309E-06
   5.797343974543886E-03  1.738000000000001E+03  2.592603123618961E-19
2465607.671999999 = A.D. 2038-Jul-03 04:07:40.8000 TDB 
   1.555074115029851E+03  6.617191496857156E+02 -4.056060449541420E+02
  -1.755731889400040E-03  4.108693036688550E-03 -2.833377787203996E-05
   5.797343974543885E-03  1.738000000000001E+03 -4.761007468589968E-19
2465608.365999999 = A.D. 2038-Jul-03 20:47:02.4000 TDB 
   1.430634831952337E+03  8.986538937498659E+02 -4.078592365668773E+02
  -2.386084399055779E-03  3.777410793797225E-03 -4.665956639549420E-05
   5.797343974543886E-03  1.738000000000001E+03 -1.077963955152446E-19
2465609.060000000 = A.D. 2038-Jul-04 13:26:24.0000 TDB 
   1.270140657323758E+03  1.112798111105372E+03 -4.111776678438315E+02
  -2.955778697792171E-03  3.350137136169207E-03 -6.378853497028395E-05
   5.797343974543886E-03  1.738000000000001E+03  0.000000000000000E+00
2465609.753999999 = A.D. 2038-Jul-05 06:05:45.6000 TDB 
   1.077671324503843E+03  1.298710129519671E+03 -4.154762518184821E+02
  -3.450342112320213E-03  2.837734713295818E-03 -7.928235846082316E-05
   5.797343974543885E-03  1.738000000000001E+03 -9.981147732893017E-20
2465610.447999999 = A.D. 2038-Jul-05 22:45:07.2000 TDB 
   8.581188256023072E+02  1.451665944600837E+03 -4.206448221874105E+02
  -3.857212096875671E-03  2.253227595583301E-03 -9.274463078848315E-05
   5.797343974543886E-03  1.738000000000001E+03  1.756682000989171E-19
2465611.142000000 = A.D. 2038-Jul-06 15:24:28.8000 TDB 
   6.170630619414960E+02  1.567779148872463E+03 -4.265509558635670E+02
  -4.166054805060444E-03  1.611470171745773E-03 -1.038309710127480E-04
   5.797343974543886E-03  1.738000000000001E+03  4.830875502720220E-19
